CCSDS_OMM_VERS = 2.0
CREATION_DATE  = 
ORIGINATOR     = 

OBJECT_NAME    = STARLINK-35707
OBJECT_ID      = 2025-265T
CENTER_NAME    = EARTH
REF_FRAME      = TEME
TIME_SYSTEM    = UTC
MEAN_ELEMENT_THEORY = SGP/SGP4

EPOCH          = 2025-12-01T20:00:01.999008
MEAN_MOTION    = 15.75155380
ECCENTRICITY   = .0001448
INCLINATION    = 42.9997
RA_OF_ASC_NODE = 118.8660
ARG_OF_PERICENTER = 269.9488
MEAN_ANOMALY   = 41.2642

EPHEMERIS_TYPE = 0
CLASSIFICATION_TYPE = U
NORAD_CAT_ID   = 66533
ELEMENT_SET_NO = 999
REV_AT_EPOCH   = 324
BSTAR          = -.93218E-3
MEAN_MOTION_DOT = -.142005E-2
MEAN_MOTION_DDOT = 0

CCSDS_OMM_VERS = 2.0
CREATION_DATE  = 
ORIGINATOR     = 

OBJECT_NAME    = STARLINK-35976
OBJECT_ID      = 2025-265U
CENTER_NAME    = EARTH
REF_FRAME      = TEME
TIME_SYSTEM    = UTC
MEAN_ELEMENT_THEORY = SGP/SGP4

EPOCH          = 2025-12-01T20:00:01.999008
MEAN_MOTION    = 15.75028865
ECCENTRICITY   = .0001824
INCLINATION    = 42.9999
RA_OF_ASC_NODE = 118.8610
ARG_OF_PERICENTER = 275.6768
MEAN_ANOMALY   = 37.4716

EPHEMERIS_TYPE = 0
CLASSIFICATION_TYPE = U
NORAD_CAT_ID   = 66534
ELEMENT_SET_NO = 999
REV_AT_EPOCH   = 324
BSTAR          = .22125E-3
MEAN_MOTION_DOT = .33629E-3
MEAN_MOTION_DDOT = 0

CCSDS_OMM_VERS = 2.0
CREATION_DATE  = 
ORIGINATOR     = 

OBJECT_NAME    = STARLINK-35514
OBJECT_ID      = 2025-265V
CENTER_NAME    = EARTH
REF_FRAME      = TEME
TIME_SYSTEM    = UTC
MEAN_ELEMENT_THEORY = SGP/SGP4

EPOCH          = 2025-12-01T20:00:01.999008
MEAN_MOTION    = 15.75059884
ECCENTRICITY   = .0001757
INCLINATION    = 42.9998
RA_OF_ASC_NODE = 118.8562
ARG_OF_PERICENTER = 278.0056
MEAN_ANOMALY   = 37.0527

EPHEMERIS_TYPE = 0
CLASSIFICATION_TYPE = U
NORAD_CAT_ID   = 66535
ELEMENT_SET_NO = 999
REV_AT_EPOCH   = 324
BSTAR          = -.37599E-3
MEAN_MOTION_DOT = -.57892E-3
MEAN_MOTION_DDOT = 0

CCSDS_OMM_VERS = 2.0
CREATION_DATE  = 
ORIGINATOR     = 

OBJECT_NAME    = STARLINK-35640
OBJECT_ID      = 2025-265W
CENTER_NAME    = EARTH
REF_FRAME      = TEME
TIME_SYSTEM    = UTC
MEAN_ELEMENT_THEORY = SGP/SGP4

EPOCH          = 2025-12-01T20:00:01.999008
MEAN_MOTION    = 15.75069722
ECCENTRICITY   = .0001479
INCLINATION    = 42.9998
RA_OF_ASC_NODE = 118.8516
ARG_OF_PERICENTER = 274.6566
MEAN_ANOMALY   = 42.3206

EPHEMERIS_TYPE = 0
CLASSIFICATION_TYPE = U
NORAD_CAT_ID   = 66536
ELEMENT_SET_NO = 999
REV_AT_EPOCH   = 322
BSTAR          = -.42024E-3
MEAN_MOTION_DOT = -.64624E-3
MEAN_MOTION_DDOT = 0

CCSDS_OMM_VERS = 2.0
CREATION_DATE  = 
ORIGINATOR     = 

OBJECT_NAME    = STARLINK-35582
OBJECT_ID      = 2025-265X
CENTER_NAME    = EARTH
REF_FRAME      = TEME
TIME_SYSTEM    = UTC
MEAN_ELEMENT_THEORY = SGP/SGP4

EPOCH          = 2025-12-01T20:00:01.999008
MEAN_MOTION    = 15.75026878
ECCENTRICITY   = .0001531
INCLINATION    = 42.9998
RA_OF_ASC_NODE = 118.8465
ARG_OF_PERICENTER = 268.0773
MEAN_ANOMALY   = 50.8218

EPHEMERIS_TYPE = 0
CLASSIFICATION_TYPE = U
NORAD_CAT_ID   = 66537
ELEMENT_SET_NO = 999
REV_AT_EPOCH   = 324
BSTAR          = .32085E-3
MEAN_MOTION_DOT = .49068E-3
MEAN_MOTION_DDOT = 0

CCSDS_OMM_VERS = 2.0
CREATION_DATE  = 
ORIGINATOR     = 

OBJECT_NAME    = STARLINK-35577
OBJECT_ID      = 2025-265Y
CENTER_NAME    = EARTH
REF_FRAME      = TEME
TIME_SYSTEM    = UTC
MEAN_ELEMENT_THEORY = SGP/SGP4

EPOCH          = 2025-12-01T20:00:01.999008
MEAN_MOTION    = 15.75023164
ECCENTRICITY   = .0001682
INCLINATION    = 42.9999
RA_OF_ASC_NODE = 118.8415
ARG_OF_PERICENTER = 266.7301
MEAN_ANOMALY   = 54.0853

EPHEMERIS_TYPE = 0
CLASSIFICATION_TYPE = U
NORAD_CAT_ID   = 66538
ELEMENT_SET_NO = 999
REV_AT_EPOCH   = 324
BSTAR          = .40411E-3
MEAN_MOTION_DOT = .62012E-3
MEAN_MOTION_DDOT = 0

CCSDS_OMM_VERS = 2.0
CREATION_DATE  = 
ORIGINATOR     = 

OBJECT_NAME    = STARLINK-35697
OBJECT_ID      = 2025-265Z
CENTER_NAME    = EARTH
REF_FRAME      = TEME
TIME_SYSTEM    = UTC
MEAN_ELEMENT_THEORY = SGP/SGP4

EPOCH          = 2025-12-01T20:00:01.999008
MEAN_MOTION    = 15.75029925
ECCENTRICITY   = .0001957
INCLINATION    = 43.0000
RA_OF_ASC_NODE = 118.8362
ARG_OF_PERICENTER = 273.4861
MEAN_ANOMALY   = 49.2449

EPHEMERIS_TYPE = 0
CLASSIFICATION_TYPE = U
NORAD_CAT_ID   = 66539
ELEMENT_SET_NO = 999
REV_AT_EPOCH   = 324
BSTAR          = .18454E-3
MEAN_MOTION_DOT = .27953E-3
MEAN_MOTION_DDOT = 0

CCSDS_OMM_VERS = 2.0
CREATION_DATE  = 
ORIGINATOR     = 

OBJECT_NAME    = STARLINK-35818
OBJECT_ID      = 2025-265AA
CENTER_NAME    = EARTH
REF_FRAME      = TEME
TIME_SYSTEM    = UTC
MEAN_ELEMENT_THEORY = SGP/SGP4

EPOCH          = 2025-12-01T20:00:01.999008
MEAN_MOTION    = 15.75040653
ECCENTRICITY   = .0001644
INCLINATION    = 42.9995
RA_OF_ASC_NODE = 118.8316
ARG_OF_PERICENTER = 282.4183
MEAN_ANOMALY   = 42.2301

EPHEMERIS_TYPE = 0
CLASSIFICATION_TYPE = U
NORAD_CAT_ID   = 66540
ELEMENT_SET_NO = 999
REV_AT_EPOCH   = 324
BSTAR          = .13936E-3
MEAN_MOTION_DOT = .20984E-3
MEAN_MOTION_DDOT = 0

CCSDS_OMM_VERS = 2.0
CREATION_DATE  = 
ORIGINATOR     = 

OBJECT_NAME    = STARLINK-35796
OBJECT_ID      = 2025-265AB
CENTER_NAME    = EARTH
REF_FRAME      = TEME
TIME_SYSTEM    = UTC
MEAN_ELEMENT_THEORY = SGP/SGP4

EPOCH          = 2025-12-01T20:00:01.999008
MEAN_MOTION    = 15.75068047
ECCENTRICITY   = .0001573
INCLINATION    = 42.9998
RA_OF_ASC_NODE = 118.8271
ARG_OF_PERICENTER = 279.6509
MEAN_ANOMALY   = 46.9077

EPHEMERIS_TYPE = 0
CLASSIFICATION_TYPE = U
NORAD_CAT_ID   = 66541
ELEMENT_SET_NO = 999
REV_AT_EPOCH   = 324
BSTAR          = -.22106E-3
MEAN_MOTION_DOT = -.3434E-3
MEAN_MOTION_DDOT = 0

CCSDS_OMM_VERS = 2.0
CREATION_DATE  = 
ORIGINATOR     = 

OBJECT_NAME    = STARLINK-35833
OBJECT_ID      = 2025-265AC
CENTER_NAME    = EARTH
REF_FRAME      = TEME
TIME_SYSTEM    = UTC
MEAN_ELEMENT_THEORY = SGP/SGP4

EPOCH          = 2025-12-01T20:00:01.999008
MEAN_MOTION    = 15.75071551
ECCENTRICITY   = .000158
INCLINATION    = 42.9999
RA_OF_ASC_NODE = 118.8229
ARG_OF_PERICENTER = 275.5438
MEAN_ANOMALY   = 52.9311

EPHEMERIS_TYPE = 0
CLASSIFICATION_TYPE = U
NORAD_CAT_ID   = 66542
ELEMENT_SET_NO = 999
REV_AT_EPOCH   = 324
BSTAR          = -.26807E-3
MEAN_MOTION_DOT = -.41511E-3
MEAN_MOTION_DDOT = 0

CCSDS_OMM_VERS = 2.0
CREATION_DATE  = 
ORIGINATOR     = 

OBJECT_NAME    = STARLINK-35315
OBJECT_ID      = 2025-265AD
CENTER_NAME    = EARTH
REF_FRAME      = TEME
TIME_SYSTEM    = UTC
MEAN_ELEMENT_THEORY = SGP/SGP4

EPOCH          = 2025-12-01T20:00:01.999008
MEAN_MOTION    = 15.75062842
ECCENTRICITY   = .0001525
INCLINATION    = 42.9999
RA_OF_ASC_NODE = 118.8166
ARG_OF_PERICENTER = 273.6925
MEAN_ANOMALY   = 56.6894

EPHEMERIS_TYPE = 0
CLASSIFICATION_TYPE = U
NORAD_CAT_ID   = 66543
ELEMENT_SET_NO = 999
REV_AT_EPOCH   = 313
BSTAR          = -.13733E-3
MEAN_MOTION_DOT = -.21541E-3
MEAN_MOTION_DDOT = 0

CCSDS_OMM_VERS = 2.0
CREATION_DATE  = 
ORIGINATOR     = 

OBJECT_NAME    = STARLINK-35728
OBJECT_ID      = 2025-265AE
CENTER_NAME    = EARTH
REF_FRAME      = TEME
TIME_SYSTEM    = UTC
MEAN_ELEMENT_THEORY = SGP/SGP4

EPOCH          = 2025-12-01T20:00:01.999008
MEAN_MOTION    = 15.75066704
ECCENTRICITY   = .0001577
INCLINATION    = 42.9998
RA_OF_ASC_NODE = 118.8125
ARG_OF_PERICENTER = 273.3129
MEAN_ANOMALY   = 59.0010

EPHEMERIS_TYPE = 0
CLASSIFICATION_TYPE = U
NORAD_CAT_ID   = 66544
ELEMENT_SET_NO = 999
REV_AT_EPOCH   = 324
BSTAR          = -.24388E-3
MEAN_MOTION_DOT = -.37818E-3
MEAN_MOTION_DDOT = 0

