STARLINK-35707          
1 66533U 25265T   25335.83335647 -.00142005  00000+0 -93218-3 0  9999
2 66533  42.9997 118.8660 0001448 269.9488  41.2642 15.75155380  3246
STARLINK-35976          
1 66534U 25265U   25335.83335647  .00033629  00000+0  22125-3 0  9998
2 66534  42.9999 118.8610 0001824 275.6768  37.4716 15.75028865  3243
STARLINK-35514          
1 66535U 25265V   25335.83335647 -.00057892  00000+0 -37599-3 0  9990
2 66535  42.9998 118.8562 0001757 278.0056  37.0527 15.75059884  3242
STARLINK-35640          
1 66536U 25265W   25335.83335647 -.00064624  00000+0 -42024-3 0  9991
2 66536  42.9998 118.8516 0001479 274.6566  42.3206 15.75069722  3224
STARLINK-35582          
1 66537U 25265X   25335.83335647  .00049068  00000+0  32085-3 0  9991
2 66537  42.9998 118.8465 0001531 268.0773  50.8218 15.75026878  3248
STARLINK-35577          
1 66538U 25265Y   25335.83335647  .00062012  00000+0  40411-3 0  9998
2 66538  42.9999 118.8415 0001682 266.7301  54.0853 15.75023164  3240
STARLINK-35697          
1 66539U 25265Z   25335.83335647  .00027953  00000+0  18454-3 0  9996
2 66539  43.0000 118.8362 0001957 273.4861  49.2449 15.75029925  3246
STARLINK-35818          
1 66540U 25265AA  25335.83335647  .00020984  00000+0  13936-3 0  9995
2 66540  42.9995 118.8316 0001644 282.4183  42.2301 15.75040653  3249
STARLINK-35796          
1 66541U 25265AB  25335.83335647 -.00034340  00000+0 -22106-3 0  9998
2 66541  42.9998 118.8271 0001573 279.6509  46.9077 15.75068047  3242
STARLINK-35833          
1 66542U 25265AC  25335.83335647 -.00041511  00000+0 -26807-3 0  9999
2 66542  42.9999 118.8229 0001580 275.5438  52.9311 15.75071551  3243
STARLINK-35315          
1 66543U 25265AD  25335.83335647 -.00021541  00000+0 -13733-3 0  9995
2 66543  42.9999 118.8166 0001525 273.6925  56.6894 15.75062842  3131
STARLINK-35728          
1 66544U 25265AE  25335.83335647 -.00037818  00000+0 -24388-3 0  9998
2 66544  42.9998 118.8125 0001577 273.3129  59.0010 15.75066704  3246
